MAKERSAT 0              
1 43016U 17073D   26124.65602066  .00024367  00000+0  68461-3 0  9997
2 43016  97.4683   6.8854 0113074  68.2597 293.0634 15.30244193459802
SIRION PATHFINDER-2     
1 43759U 18099B   26124.37243148  .00004443  00000+0  24701-3 0  9993
2 43759  97.4283 174.4765 0010516  92.9042 267.3393 15.14146926405995
CORVUS BC4              
1 43767U 18099K   26124.65101785  .00004428  00000+0  26031-3 0  9994
2 43767  97.4100 168.9091 0009466 142.9375 217.2511 15.12143974405825
M2 PATHFINDER           
1 45727U 20037E   26124.48571093  .00002608  00000+0  19080-3 0  9995
2 45727  97.8150 315.2285 0010619 303.8385  56.1830 15.04479100318927
NETSAT-4                
1 46504U 20068U   26124.54813885  .00018062  00000+0  41902-3 0  9997
2 46504  97.8620 129.3338 0007625 111.9534 248.2523 15.42432472309042
NETSAT-3                
1 46505U 20068V   26124.58497874  .00018427  00000+0  44536-3 0  9999
2 46505  97.8669 127.6477 0007232 124.5790 235.6138 15.41195571308966
NETSAT-1                
1 46506U 20068W   26124.49844657  .00013032  00000+0  40355-3 0  9997
2 46506  97.8753 122.3867 0006164 144.0640 216.1017 15.33588293308609
NETSAT-2                
1 46507U 20068X   26124.51287856  .00021906  00000+0  47896-3 0  9999
2 46507  97.8634 129.0456 0005809 131.3555 228.8192 15.44171527308991
GREENCUBE (IO-117)      
1 53109U 22080E   26122.89410547 -.00000003  00000+0  00000+0 0  9993
2 53109  70.1448 314.0048 0008850 300.3299  59.6485  6.42583286 89155
SITRO-AIS 5 (KATYS)     
1 57176U 23091L   26124.74375477  .00011388  00000+0  41287-3 0  9995
2 57176  97.5082 188.2585 0010141 251.8031 108.2105 15.28476562157706
SITRO-AIS 6 (CHIRKIN)   
1 57192U 23091AC  26124.82201740  .00005847  00000+0  23570-3 0  9991
2 57192  97.5090 187.6798 0010379 256.0637 103.9447 15.25175659157671
SITRO-AIS 8 (ANOKHIN)   
1 57193U 23091AD  26124.83414176  .00012887  00000+0  43215-3 0  9992
2 57193  97.5077 189.7685 0009406 246.5975 113.4277 15.30995896157815
SITRO-AIS 7 (FARTUSHNIY)
1 57194U 23091AE  26124.81659617  .00005385  00000+0  21924-3 0  9990
2 57194  97.5089 187.5209 0010202 257.3018 102.7079 15.24883808157667
SITRO-AIS 10 (BURDAEV)  
1 57199U 23091AK  26124.84609957  .00019479  00000+0  53930-3 0  9991
2 57199  97.5098 194.4050 0006279 215.2624 144.8205 15.37009069158109
SITRO-AIS 9 (SHCHUKIN)  
1 57201U 23091AM  26124.85941512  .00019869  00000+0  55794-3 0  9995
2 57201  97.5097 194.1809 0006497 215.9044 144.1764 15.36561847158093
SITRO-AIS 12 (SMIRENNIY)
1 57204U 23091AQ  26124.85810309  .00019817  00000+0  55153-3 0  9999
2 57204  97.5109 194.6202 0006305 208.9406 151.1489 15.36841980158118
SITRO-AIS 11 (SHEFFER)  
1 57208U 23091AU  26124.81783043  .00020510  00000+0  56366-3 0  9992
2 57208  97.5107 194.7993 0006240 209.0557 151.0341 15.37228595158124
SITRO-AIS 25            
1 59066U 24039R   26124.82231928  .00005825  00000+0  45278-3 0  9992
2 59066  95.3916 205.2990 0147468 119.3946 242.2095 14.93191988118255
SITRO-AIS 26            
1 59067U 24039S   26124.88490494  .00005698  00000+0  44504-3 0  9993
2 59067  95.3916 205.2485 0147728 119.7118 241.8904 14.92999005118258
SITRO-AIS 27            
1 59068U 24039T   26124.86715444  .00005369  00000+0  41589-3 0  9992
2 59068  95.3923 205.4881 0146805 118.4712 243.1391 14.93409500118274
SITRO-AIS 28            
1 59071U 24039U   26124.84560494  .00006282  00000+0  48548-3 0  9994
2 59071  95.3926 205.5180 0146901 118.3654 243.2474 14.93445010118274
GRBBETA                 
1 60237U 24128C   26124.80993073  .00004005  00000+0  27948-3 0  9990
2 60237  61.9916   8.4142 0046154 125.6315 234.9090 15.06289061 99737
OOV-CUBE (TUBSAT-30)    
1 60240U 24128F   26124.80182657  .00002316  00000+0  18459-3 0  9992
2 60240  61.9967  16.8307 0049710 124.2520 236.3295 15.02556763 99596
ROBUSTA-3A (MEDITERRAN*)
1 60243U 24128J   26124.79855083  .00008224  00000+0  48987-3 0  9996
2 60243  61.9879   1.6022 0046878 119.6127 240.9650 15.11005837 99867
LASARSAT                
1 62391U 24247Q   26124.13786994  .00030539  00000+0  66672-3 0  9991
2 62391  44.9718 149.2109 0004751  46.9495 313.1792 15.43710732 76503
CROCUBE                 
1 62394U 24247T   26124.76587697  .00033505  00000+0  69244-3 0  9996
2 62394  44.9711 143.6660 0004339  52.8788 307.2498 15.45285954 76627
FORESAIL-1 PRIME        
1 66778U 25276DS  26124.76815569  .00005154  00000+0  25454-3 0  9995
2 66778  97.4208 198.8442 0001038 229.0219 131.0926 15.18305678 23819
KNACKSAT-2              
1 67683U 98067XZ  26124.47714523  .00040009  00000+0  55994-3 0  9995
2 67683  51.6275 153.6873 0012746  35.8918 324.2927 15.56312178 13467
